OBJECT_NAME,OBJECT_ID,EPOCH,MEAN_MOTION,ECCENTRICITY,INCLINATION,RA_OF_ASC_NODE,ARG_OF_PERICENTER,MEAN_ANOMALY,EPHEMERIS_TYPE,CLASSIFICATION_TYPE,NORAD_CAT_ID,ELEMENT_SET_NO,REV_AT_EPOCH,BSTAR,MEAN_MOTION_DOT,MEAN_MOTION_DDOT
LQSAT,2015-057A,2026-07-23T20:39:45.146880,14.76819474,.0017718,97.6707,196.4246,148.4741,211.7536,0,U,40958,999,58072,.44668E-4,.266E-5,0
LINGQIAO VIDEO A,2015-057B,2026-07-23T20:47:52.010016,14.77433470,.0017509,97.6647,197.8632,145.4890,214.7462,0,U,40959,999,58082,.76689E-4,.499E-5,0
LINGQIAO VIDEO B,2015-057C,2026-07-23T21:48:00.671040,14.77540642,.001766,97.6612,199.0565,145.3814,214.8551,0,U,40960,999,58087,.10294E-3,.688E-5,0
JILIN-1,2015-057D,2026-07-23T20:06:13.848192,14.78211475,.0017942,97.6525,202.3884,139.8929,220.3610,0,U,40961,999,58102,.10599E-3,.722E-5,0
FOX-1A (AO-85),2015-058D,2026-07-23T07:15:55.096128,14.91129767,.0133071,64.7741,166.7324,42.7370,318.3997,0,U,40967,999,11895,.33669E-3,.3792E-4,0
SINOD-D 1,2015-058E,2026-07-23T20:16:29.995968,14.96158782,.0121759,64.7745,144.0931,38.8855,322.0939,0,U,40968,999,12214,.44923E-3,.5719E-4,0
ELEKTRO-L 2,2015-074A,2026-07-23T19:45:36.938016,1.00272709,.000059,6.7838,70.0693,232.5473,280.8579,0,U,41105,999,3887,0,-.118E-5,0
DAMPE,2015-078A,2026-07-23T20:07:48.794880,15.30869119,.0010589,97.4576,210.4893,312.5862,47.4485,0,U,41173,999,59015,.38512E-4,.1072E-4,0
ORBCOMM FM114,2015-081A,2026-07-23T03:20:23.821440,14.58893183,.00026113,47.0031,192.0230,339.6474,20.4307,0,U,41179,999,56300,.11126223E-3,.355E-5,0
ORBCOMM FM110,2015-081D,2026-07-23T07:58:30.885888,14.58928581,.0003835,47.0004,190.5313,254.1022,105.9441,0,U,41182,999,56290,.18419E-3,.7E-5,0
ORBCOMM FM112,2015-081F,2026-07-23T17:06:46.713024,14.58948415,.0003161,46.9990,97.5188,6.5526,353.5401,0,U,41184,999,56428,.15651E-3,.57E-5,0
ORBCOMM FM113,2015-081G,2026-07-23T19:52:14.581056,14.58888890,.0001705,47.0008,97.3714,357.2246,2.8630,0,U,41185,999,56428,.10813E-3,.34E-5,0
ORBCOMM FM108,2015-081J,2026-07-23T20:35:53.403936,14.58919595,.0002077,47.0062,8.8101,357.0507,3.0366,0,U,41187,999,56543,.15167E-3,.547E-5,0
ORBCOMM FM117,2015-081K,2026-07-23T19:46:39.423360,14.58906500,.0002458,47.0024,7.5969,5.7360,354.3554,0,U,41188,999,56547,.14958E-3,.536E-5,0
ORBCOMM FM116,2015-081L,2026-07-23T17:39:21.374784,14.58915425,.0001772,47.0023,97.8045,252.4319,107.6373,0,U,41189,999,56427,.13859E-3,.485E-5,0
CHUBUSAT-2,2016-012B,2026-07-23T19:50:44.433888,15.21210095,.0008379,30.9978,80.8754,91.5843,268.5758,0,U,41338,999,57400,.25555E-3,.5968E-4,0
CHUBUSAT-3,2016-012C,2026-07-23T21:04:48.380736,15.18827600,.0008845,31.0046,91.0093,77.6963,282.4667,0,U,41339,999,57378,.25378E-3,.5533E-4,0
ZIYUAN 3-02 (ZY 3-02),2016-033A,2026-07-23T21:23:59.069760,15.21169092,.0013635,97.3822,279.9589,158.0300,202.1523,0,U,41556,999,56356,.28915E-3,.6391E-4,0
CARTOSAT-2C,2016-040A,2026-07-23T11:35:57.588288,15.19310130,.0008686,97.4464,263.9576,19.1280,341.0279,0,U,41599,999,55922,.19304E-3,.401E-4,0
LAPAN-A3,2016-040E,2026-07-23T20:52:38.870976,15.33319162,.0008492,97.1510,199.8193,237.5813,122.4609,0,U,41603,999,56043,.11348E-3,.3581E-4,0
GAOFEN-3,2016-049A,2026-07-23T20:30:09.428256,14.42219020,.0001777,98.4029,212.0876,82.3084,277.8307,0,U,41727,999,52393,.4295E-5,-.29E-6,0
PRATHAM,2016-059A,2026-07-23T10:57:31.250016,14.67234594,.0032708,97.8344,199.7244,102.5476,257.9391,0,U,41783,999,52483,.12104E-3,.64E-5,0
ALSAT-1N,2016-059G,2026-07-23T19:42:24.359328,14.69358743,.0027496,97.8025,206.5432,71.6126,288.8067,0,U,41789,999,52538,.12134E-3,.674E-5,0
YUNHAI-1 01,2016-068A,2026-07-23T20:00:17.279712,14.32726973,.0002589,98.5859,215.5016,318.7561,41.3427,0,U,41857,999,50707,.10032E-3,.229E-5,0
RESOURCESAT-2A,2016-074A,2026-07-23T19:27:00.351936,14.21610569,.000187,98.7512,278.0125,7.5055,352.6150,0,U,41877,999,49950,.63346E-4,.95E-6,0
TANSAT,2016-081A,2026-07-23T20:18:35.283744,14.59975740,.001998,98.5385,206.1900,192.2050,167.8668,0,U,41898,999,50997,.72273E-4,.297E-5,0
JILIN-1 03,2017-002B,2026-07-23T19:41:10.076064,15.42406201,.0007234,97.1959,211.4103,56.0116,304.1818,0,U,41914,999,52750,.32428E-3,.13946E-3,0
CARTOSAT-2D,2017-008A,2026-07-23T10:46:43.190400,15.19329256,.0006506,97.4087,263.0730,117.0345,243.1554,0,U,41948,999,52308,.19096E-3,.3968E-4,0
CARTOSAT-2E,2017-036C,2026-07-23T14:22:12.932256,15.19302949,.0004182,97.4256,263.7967,159.7710,200.3691,0,U,42767,999,50367,.23677E-3,.4931E-4,0
D-SAT,2017-036AF,2026-07-22T04:23:49.489152,15.17476753,.00822287,97.5582,182.0157,41.5190,319.2249,0,U,42794,999,49616,.38891882E-3,.8435E-4,0
